{
  "type": "FeatureCollection",
  "features": [
    {
      "type": "Feature",
      "properties": {
        "norad_id": 37836,
        "name": "EUTELSAT 16A",
        "group": "eutelsat",
        "lat": -0.04591394248880304,
        "lon": -167.01777238448432,
        "alt_km": 35774.77370834994,
        "timestamp": "2025-12-03T06:58:42.912576+00:00",
        "meta_object_name": "EUTELSAT 16A",
        "meta_object_id": "2011-057A",
        "meta_epoch": "2025-12-02T17:17:08.791296",
        "meta_mean_motion": 1.00273506,
        "meta_eccentricity": 0.0006053,
        "meta_inclination": 0.0594,
        "meta_ra_of_asc_node": 345.742,
        "meta_arg_of_pericenter": 272.5245,
        "meta_mean_anomaly": 88.8468,
        "meta_ephemeris_type": 0,
        "meta_classification_type": "U",
        "meta_norad_cat_id": 37836,
        "meta_element_set_no": 999,
        "meta_rev_at_epoch": 535,
        "meta_bstar": 0,
        "meta_mean_motion_dot": 1.24e-06,
        "meta_mean_motion_ddot": 0,
        "tle_line1": "1 37836U 11057A   25336.72024064  .00000124  00000+0  00000+0 0  9990",
        "tle_line2": "2 37836   0.0594 345.7420 0006053 272.5245  88.8468  1.00273506  5352"
      },
      "geometry": {
        "type": "Point",
        "coordinates": [
          -167.01777238448432,
          -0.04591394248880304
        ]
      }
    },
    {
      "type": "Feature",
      "properties": {
        "norad_id": 38992,
        "name": "EUTELSAT 21B",
        "group": "eutelsat",
        "lat": -0.0587666210912569,
        "lon": -161.3910674068333,
        "alt_km": 35779.774956964204,
        "timestamp": "2025-12-03T06:58:42.912588+00:00",
        "meta_object_name": "EUTELSAT 21B",
        "meta_object_id": "2012-062B",
        "meta_epoch": "2025-12-02T17:18:46.134720",
        "meta_mean_motion": 1.00273528,
        "meta_eccentricity": 0.0003354,
        "meta_inclination": 0.0684,
        "meta_ra_of_asc_node": 344.4241,
        "meta_arg_of_pericenter": 280.4304,
        "meta_mean_anomaly": 88.2642,
        "meta_ephemeris_type": 0,
        "meta_classification_type": "U",
        "meta_norad_cat_id": 38992,
        "meta_element_set_no": 999,
        "meta_rev_at_epoch": 4785,
        "meta_bstar": 0,
        "meta_mean_motion_dot": 1.5e-06,
        "meta_mean_motion_ddot": 0,
        "tle_line1": "1 38992U 12062B   25336.72136730  .00000150  00000+0  00000+0 0  9994",
        "tle_line2": "2 38992   0.0684 344.4241 0003354 280.4304  88.2642  1.00273528 47851"
      },
      "geometry": {
        "type": "Point",
        "coordinates": [
          -161.3910674068333,
          -0.0587666210912569
        ]
      }
    },
    {
      "type": "Feature",
      "properties": {
        "norad_id": 39020,
        "name": "EUTELSAT 70B",
        "group": "eutelsat",
        "lat": -0.0788737335834187,
        "lon": -112.46323883137124,
        "alt_km": 35767.80917755178,
        "timestamp": "2025-12-03T06:58:42.912600+00:00",
        "meta_object_name": "EUTELSAT 70B",
        "meta_object_id": "2012-069A",
        "meta_epoch": "2025-12-02T18:41:34.920096",
        "meta_mean_motion": 1.00271566,
        "meta_eccentricity": 0.000435,
        "meta_inclination": 0.0626,
        "meta_ra_of_asc_node": 0.3662,
        "meta_arg_of_pericenter": 241.0408,
        "meta_mean_anomaly": 181.3629,
        "meta_ephemeris_type": 0,
        "meta_classification_type": "U",
        "meta_norad_cat_id": 39020,
        "meta_element_set_no": 999,
        "meta_rev_at_epoch": 4754,
        "meta_bstar": 0,
        "meta_mean_motion_dot": -2.4e-07,
        "meta_mean_motion_ddot": 0,
        "tle_line1": "1 39020U 12069A   25336.77887639 -.00000024  00000+0  00000+0 0  9991",
        "tle_line2": "2 39020   0.0626   0.3662 0004350 241.0408 181.3629  1.00271566 47546"
      },
      "geometry": {
        "type": "Point",
        "coordinates": [
          -112.46323883137124,
          -0.0788737335834187
        ]
      }
    },
    {
      "type": "Feature",
      "properties": {
        "norad_id": 39122,
        "name": "EUTELSAT 117 WEST A",
        "group": "eutelsat",
        "lat": 0.024477414783255838,
        "lon": 60.25310986555835,
        "alt_km": 35798.92394780352,
        "timestamp": "2025-12-03T06:58:42.912613+00:00",
        "meta_object_name": "EUTELSAT 117 WEST A",
        "meta_object_id": "2013-012A",
        "meta_epoch": "2025-12-02T14:56:31.247232",
        "meta_mean_motion": 1.00271807,
        "meta_eccentricity": 0.0003109,
        "meta_inclination": 0.0352,
        "meta_ra_of_asc_node": 53.2537,
        "meta_arg_of_pericenter": 199.2772,
        "meta_mean_anomaly": 286.5331,
        "meta_ephemeris_type": 0,
        "meta_classification_type": "U",
        "meta_norad_cat_id": 39122,
        "meta_element_set_no": 999,
        "meta_rev_at_epoch": 4646,
        "meta_bstar": 0,
        "meta_mean_motion_dot": 7e-08,
        "meta_mean_motion_ddot": 0,
        "tle_line1": "1 39122U 13012A   25336.62258388  .00000007  00000+0  00000+0 0  9990",
        "tle_line2": "2 39122   0.0352  53.2537 0003109 199.2772 286.5331  1.00271807 46468"
      },
      "geometry": {
        "type": "Point",
        "coordinates": [
          60.25310986555835,
          0.024477414783255838
        ]
      }
    },
    {
      "type": "Feature",
      "properties": {
        "norad_id": 39163,
        "name": "EUTELSAT 7B",
        "group": "eutelsat",
        "lat": -0.023168072259287294,
        "lon": -175.99127166393913,
        "alt_km": 35796.95658249449,
        "timestamp": "2025-12-03T06:58:42.912625+00:00",
        "meta_object_name": "EUTELSAT 7B",
        "meta_object_id": "2013-022A",
        "meta_epoch": "2025-12-02T15:31:41.392704",
        "meta_mean_motion": 1.00272361,
        "meta_eccentricity": 0.0004353,
        "meta_inclination": 0.0676,
        "meta_ra_of_asc_node": 357.8305,
        "meta_arg_of_pericenter": 313.6801,
        "meta_mean_anomaly": 0.1713,
        "meta_ephemeris_type": 0,
        "meta_classification_type": "U",
        "meta_norad_cat_id": 39163,
        "meta_element_set_no": 999,
        "meta_rev_at_epoch": 4598,
        "meta_bstar": 0,
        "meta_mean_motion_dot": 6.8e-07,
        "meta_mean_motion_ddot": 0,
        "tle_line1": "1 39163U 13022A   25336.64700686  .00000068  00000+0  00000+0 0  9998",
        "tle_line2": "2 39163   0.0676 357.8305 0004353 313.6801   0.1713  1.00272361 45981"
      },
      "geometry": {
        "type": "Point",
        "coordinates": [
          -175.99127166393913,
          -0.023168072259287294
        ]
      }
    },
    {
      "type": "Feature",
      "properties": {
        "norad_id": 39612,
        "name": "EXPRESS-AT1",
        "group": "eutelsat",
        "lat": -0.034474843014407175,
        "lon": -126.95620362103408,
        "alt_km": 35786.36044784127,
        "timestamp": "2025-12-03T06:58:42.912637+00:00",
        "meta_object_name": "EXPRESS-AT1",
        "meta_object_id": "2014-010A",
        "meta_epoch": "2025-12-02T20:49:38.785728",
        "meta_mean_motion": 1.00269797,
        "meta_eccentricity": 3.31e-05,
        "meta_inclination": 0.0152,
        "meta_ra_of_asc_node": 289.8493,
        "meta_arg_of_pericenter": 223.4383,
        "meta_mean_anomaly": 287.0974,
        "meta_ephemeris_type": 0,
        "meta_classification_type": "U",
        "meta_norad_cat_id": 39612,
        "meta_element_set_no": 999,
        "meta_rev_at_epoch": 4284,
        "meta_bstar": 0,
        "meta_mean_motion_dot": 9.8e-07,
        "meta_mean_motion_ddot": 0,
        "tle_line1": "1 39612U 14010A   25336.86781002  .00000098  00000+0  00000+0 0  9993",
        "tle_line2": "2 39612   0.0152 289.8493 0000331 223.4383 287.0974  1.00269797 42842"
      },
      "geometry": {
        "type": "Point",
        "coordinates": [
          -126.95620362103408,
          -0.034474843014407175
        ]
      }
    },
    {
      "type": "Feature",
      "properties": {
        "norad_id": 39613,
        "name": "EXPRESS-AT2",
        "group": "eutelsat",
        "lat": 0.004891703212190114,
        "lon": -43.091020272275316,
        "alt_km": 35781.62472805744,
        "timestamp": "2025-12-03T06:58:42.912649+00:00",
        "meta_object_name": "EXPRESS-AT2",
        "meta_object_id": "2014-010B",
        "meta_epoch": "2025-12-02T18:39:51.468192",
        "meta_mean_motion": 1.00272051,
        "meta_eccentricity": 0.0001224,
        "meta_inclination": 0.0174,
        "meta_ra_of_asc_node": 307.1103,
        "meta_arg_of_pericenter": 339.3359,
        "meta_mean_anomaly": 205.2613,
        "meta_ephemeris_type": 0,
        "meta_classification_type": "U",
        "meta_norad_cat_id": 39613,
        "meta_element_set_no": 999,
        "meta_rev_at_epoch": 4253,
        "meta_bstar": 0,
        "meta_mean_motion_dot": -2.61e-06,
        "meta_mean_motion_ddot": 0,
        "tle_line1": "1 39613U 14010B   25336.77767903 -.00000261  00000+0  00000+0 0  9991",
        "tle_line2": "2 39613   0.0174 307.1103 0001224 339.3359 205.2613  1.00272051 42536"
      },
      "geometry": {
        "type": "Point",
        "coordinates": [
          -43.091020272275316,
          0.004891703212190114
        ]
      }
    }
  ]
}